{
    "links": {
        "self": "http://www.neowsapp.com/rest/v1/neo/3802394?api_key=iIulBulltgU6a56xZRHN4H3l9WmuAYTsLGpBGhQ2"
    },
    "id": "3802394",
    "neo_reference_id": "3802394",
    "name": "(2018 GG)",
    "designation": "2018 GG",
    "nasa_jpl_url": "http://ssd.jpl.nasa.gov/sbdb.cgi?sstr=3802394",
    "absolute_magnitude_h": 24.7,
    "estimated_diameter": {
        "kilometers": {
            "estimated_diameter_min": 0.0305179233,
            "estimated_diameter_max": 0.0682401509
        },
        "meters": {
            "estimated_diameter_min": 30.5179232594,
            "estimated_diameter_max": 68.2401509401
        },
        "miles": {
            "estimated_diameter_min": 0.0189629525,
            "estimated_diameter_max": 0.0424024508
        },
        "feet": {
            "estimated_diameter_min": 100.1244233463,
            "estimated_diameter_max": 223.8850168104
        }
    },
    "is_potentially_hazardous_asteroid": false,
    "close_approach_data": [
        {
            "close_approach_date": "2018-04-11",
            "close_approach_date_full": "2018-Apr-11 21:58",
            "epoch_date_close_approach": 1523483880000,
            "relative_velocity": {
                "kilometers_per_second": "13.8907902727",
                "kilometers_per_hour": "50006.8449817038",
                "miles_per_hour": "31072.3087609926"
            },
            "miss_distance": {
                "astronomical": "0.0120174146",
                "lunar": "4.6747742794",
                "kilometers": "1797779.627066902",
                "miles": "1117088.4601791676"
            },
            "orbiting_body": "Earth"
        },
        {
            "close_approach_date": "2127-04-12",
            "close_approach_date_full": "2127-Apr-12 11:44",
            "epoch_date_close_approach": 4963203840000,
            "relative_velocity": {
                "kilometers_per_second": "14.177350254",
                "kilometers_per_hour": "51038.4609142571",
                "miles_per_hour": "31713.3147830838"
            },
            "miss_distance": {
                "astronomical": "0.0100363764",
                "lunar": "3.9041504196",
                "kilometers": "1501420.531958268",
                "miles": "932939.4575813784"
            },
            "orbiting_body": "Earth"
        },
        {
            "close_approach_date": "2127-04-12",
            "close_approach_date_full": "2127-Apr-12 19:40",
            "epoch_date_close_approach": 4963232400000,
            "relative_velocity": {
                "kilometers_per_second": "14.6851158697",
                "kilometers_per_hour": "52866.41713087",
                "miles_per_hour": "32849.1356889008"
            },
            "miss_distance": {
                "astronomical": "0.008710948",
                "lunar": "3.388558772",
                "kilometers": "1303139.26648076",
                "miles": "809733.192364088"
            },
            "orbiting_body": "Moon"
        }
    ],
    "orbital_data": {
        "orbit_id": "3",
        "orbit_determination_date": "2018-04-13 06:28:59",
        "first_observation_date": "2018-04-06",
        "last_observation_date": "2018-04-11",
        "data_arc_in_days": 5,
        "observations_used": 104,
        "orbit_uncertainty": "7",
        "minimum_orbit_intersection": ".005397",
        "jupiter_tisserand_invariant": "3.413",
        "epoch_osculation": "2459000.5",
        "eccentricity": ".6055482893002386",
        "semi_major_axis": "2.17536575044081",
        "inclination": "7.169665884814851",
        "ascending_node_longitude": "22.98911841759794",
        "orbital_period": "1171.917006811336",
        "perihelion_distance": ".8580767416590478",
        "perihelion_argument": "229.1357265368816",
        "aphelion_distance": "3.492654759222573",
        "perihelion_time": "2459428.350408973914",
        "mean_anomaly": "228.5690656118235",
        "mean_motion": ".3071889885611629",
        "equinox": "J2000",
        "orbit_class": {
            "orbit_class_type": "APO",
            "orbit_class_description": "Near-Earth asteroid orbits which cross the Earth’s orbit similar to that of 1862 Apollo",
            "orbit_class_range": "a (semi-major axis) > 1.0 AU; q (perihelion) < 1.017 AU"
        }
    },
    "is_sentry_object": false
}